{
    "links": {
        "self": "http://www.neowsapp.com/rest/v1/neo/3410576?api_key=iIulBulltgU6a56xZRHN4H3l9WmuAYTsLGpBGhQ2"
    },
    "id": "3410576",
    "neo_reference_id": "3410576",
    "name": "(2008 JM26)",
    "designation": "2008 JM26",
    "nasa_jpl_url": "http://ssd.jpl.nasa.gov/sbdb.cgi?sstr=3410576",
    "absolute_magnitude_h": 25.6,
    "estimated_diameter": {
        "kilometers": {
            "estimated_diameter_min": 0.0201629919,
            "estimated_diameter_max": 0.0450858206
        },
        "meters": {
            "estimated_diameter_min": 20.1629919443,
            "estimated_diameter_max": 45.0858206172
        },
        "miles": {
            "estimated_diameter_min": 0.0125286985,
            "estimated_diameter_max": 0.0280150214
        },
        "feet": {
            "estimated_diameter_min": 66.1515504905,
            "estimated_diameter_max": 147.9193637137
        }
    },
    "is_potentially_hazardous_asteroid": false,
    "close_approach_data": [
        {
            "close_approach_date": "1925-05-26",
            "close_approach_date_full": "1925-May-26 15:37",
            "epoch_date_close_approach": -1407486180000,
            "relative_velocity": {
                "kilometers_per_second": "17.4682987664",
                "kilometers_per_hour": "62885.8755591804",
                "miles_per_hour": "39074.8375106474"
            },
            "miss_distance": {
                "astronomical": "0.3727351869",
                "lunar": "144.9939877041",
                "kilometers": "55760390.034291903",
                "miles": "34647899.7228501414"
            },
            "orbiting_body": "Earth"
        },
        {
            "close_approach_date": "1933-05-15",
            "close_approach_date_full": "1933-May-15 12:08",
            "epoch_date_close_approach": -1155988320000,
            "relative_velocity": {
                "kilometers_per_second": "11.8234888534",
                "kilometers_per_hour": "42564.5598721558",
                "miles_per_hour": "26447.9622161181"
            },
            "miss_distance": {
                "astronomical": "0.1775409077",
                "lunar": "69.0634130953",
                "kilometers": "26559741.629786599",
                "miles": "16503458.1732251062"
            },
            "orbiting_body": "Earth"
        },
        {
            "close_approach_date": "2008-05-01",
            "close_approach_date_full": "2008-May-01 07:50",
            "epoch_date_close_approach": 1209628200000,
            "relative_velocity": {
                "kilometers_per_second": "7.1929377127",
                "kilometers_per_hour": "25894.5757657771",
                "miles_per_hour": "16089.8823695741"
            },
            "miss_distance": {
                "astronomical": "0.0269333507",
                "lunar": "10.4770734223",
                "kilometers": "4029171.896683009",
                "miles": "2503611.3225991642"
            },
            "orbiting_body": "Earth"
        },
        {
            "close_approach_date": "2133-01-19",
            "close_approach_date_full": "2133-Jan-19 20:52",
            "epoch_date_close_approach": 5145454320000,
            "relative_velocity": {
                "kilometers_per_second": "11.7652773244",
                "kilometers_per_hour": "42354.9983678792",
                "miles_per_hour": "26317.7488469747"
            },
            "miss_distance": {
                "astronomical": "0.2035883043",
                "lunar": "79.1958503727",
                "kilometers": "30456376.680191841",
                "miles": "18924714.9183797658"
            },
            "orbiting_body": "Earth"
        }
    ],
    "orbital_data": {
        "orbit_id": "6",
        "orbit_determination_date": "2017-04-06 09:03:26",
        "first_observation_date": "2008-05-13",
        "last_observation_date": "2008-05-14",
        "data_arc_in_days": 1,
        "observations_used": 16,
        "orbit_uncertainty": "9",
        "minimum_orbit_intersection": ".0226818",
        "jupiter_tisserand_invariant": "4.776",
        "epoch_osculation": "2454600.5",
        "eccentricity": ".3086639473470135",
        "semi_major_axis": "1.367771606528352",
        "inclination": "5.178197272676236",
        "ascending_node_longitude": "231.6940797929155",
        "orbital_period": "584.2770163892271",
        "perihelion_distance": ".9455898233881443",
        "perihelion_argument": "301.6840296619255",
        "aphelion_distance": "1.789953389668559",
        "perihelion_time": "2454547.398318085034",
        "mean_anomaly": "32.71839376384587",
        "mean_motion": ".6161460914974263",
        "equinox": "J2000",
        "orbit_class": {
            "orbit_class_type": "APO",
            "orbit_class_description": "Near-Earth asteroid orbits which cross the Earth’s orbit similar to that of 1862 Apollo",
            "orbit_class_range": "a (semi-major axis) > 1.0 AU; q (perihelion) < 1.017 AU"
        }
    },
    "is_sentry_object": false
}